NUSAT-48 (HENRIETTA LE*)
1 60498U 24149AG  26068.80506098  .00012988  00000+0  45212-3 0  9999
2 60498  97.3923 150.8264 0002754 263.3026  96.7901 15.29812597 86946
STARLINK-34185          
1 64744U 25144W   26068.54830600  .00041860  00000+0  14185-2 0  9998
2 64744  53.1590 181.4499 0001168  63.7059 296.4061 15.30178478 39691
